{
  "norad_id": 61741,
  "name": "SITRO-AIS 24",
  "history": [
    {
      "epoch": "2026-03-28T21:19:21.302400Z",
      "apogee_km": 588.5294184823242,
      "perigee_km": 571.8155590902597,
      "latitude_deg": -1.7772010549480592e-05,
      "longitude_deg": 144.96411894366742,
      "height_km": 575.3658689592015,
      "semi_major_axis_km": 6958.309488786292,
      "eccentricity": 0.001201,
      "inclination_deg": 97.3314,
      "raan_deg": 291.1053,
      "arg_perigee_deg": 340.3276,
      "mean_anomaly_deg": 19.7481,
      "mean_motion_rev_day": 14.95709149
    },
    {
      "epoch": "2026-03-29T03:44:41.817984Z",
      "apogee_km": 588.4989121583139,
      "perigee_km": 571.8226556893615,
      "latitude_deg": -2.6185456538512186e-05,
      "longitude_deg": 48.615381279568346,
      "height_km": 575.4142099834357,
      "semi_major_axis_km": 6958.297783923837,
      "eccentricity": 0.0011983,
      "inclination_deg": 97.3313,
      "raan_deg": 291.3558,
      "arg_perigee_deg": 339.484,
      "mean_anomaly_deg": 20.5899,
      "mean_motion_rev_day": 14.95712923
    },
    {
      "epoch": "2026-03-30T03:49:43.469760Z",
      "apogee_km": 588.3806941039584,
      "perigee_km": 571.8881991211965,
      "latitude_deg": 1.7583112877663394e-06,
      "longitude_deg": 47.30880971885865,
      "height_km": 575.6490169029946,
      "semi_major_axis_km": 6958.271446612577,
      "eccentricity": 0.0011851,
      "inclination_deg": 97.331,
      "raan_deg": 292.2952,
      "arg_perigee_deg": 336.264,
      "mean_anomaly_deg": 23.8034,
      "mean_motion_rev_day": 14.95721415
    },
    {
      "epoch": "2026-03-30T05:26:03.557184Z",
      "apogee_km": 588.3745817128201,
      "perigee_km": 571.8897462364484,
      "latitude_deg": 1.6574005104700595e-05,
      "longitude_deg": 23.221771479506618,
      "height_km": 575.6648112789786,
      "semi_major_axis_km": 6958.269163974634,
      "eccentricity": 0.00118455,
      "inclination_deg": 97.331,
      "raan_deg": 292.3578,
      "arg_perigee_deg": 336.0143,
      "mean_anomaly_deg": 24.0526,
      "mean_motion_rev_day": 14.95722151
    },
    {
      "epoch": "2026-03-30T13:27:43.964928Z",
      "apogee_km": 588.3316108241479,
      "perigee_km": 571.9113732694459,
      "latitude_deg": -6.288302389497571e-05,
      "longitude_deg": -97.21307733733079,
      "height_km": 575.7486889176347,
      "semi_major_axis_km": 6958.258492046796,
      "eccentricity": 0.00117991,
      "inclination_deg": 97.3309,
      "raan_deg": 292.671,
      "arg_perigee_deg": 334.9241,
      "mean_anomaly_deg": 25.1406,
      "mean_motion_rev_day": 14.95725592
    },
    {
      "epoch": "2026-03-30T21:29:24.315648Z",
      "apogee_km": 588.2877638608643,
      "perigee_km": 571.9349061188714,
      "latitude_deg": 1.5524636683475248e-05,
      "longitude_deg": 142.3521918978074,
      "height_km": 575.8366909475023,
      "semi_major_axis_km": 6958.2483349898675,
      "eccentricity": 0.00117507,
      "inclination_deg": 97.3308,
      "raan_deg": 292.9841,
      "arg_perigee_deg": 333.8306,
      "mean_anomaly_deg": 26.2321,
      "mean_motion_rev_day": 14.95728867
    },
    {
      "epoch": "2026-03-31T19:58:05.010816Z",
      "apogee_km": 588.1885059166434,
      "perigee_km": 571.9828053516721,
      "latitude_deg": 6.00138950837732e-05,
      "longitude_deg": 165.13608683289235,
      "height_km": 576.0779122689526,
      "semi_major_axis_km": 6958.2226556341575,
      "eccentricity": 0.0011645,
      "inclination_deg": 97.3306,
      "raan_deg": 293.8607,
      "arg_perigee_deg": 330.7808,
      "mean_anomaly_deg": 29.2762,
      "mean_motion_rev_day": 14.95737147
    },
    {
      "epoch": "2026-04-01T20:03:05.239584Z",
      "apogee_km": 588.0724017875909,
      "perigee_km": 572.0504540874217,
      "latitude_deg": -2.0138705050845834e-05,
      "longitude_deg": 163.8352751890495,
      "height_km": 576.3650714156269,
      "semi_major_axis_km": 6958.198427937506,
      "eccentricity": 0.0011513,
      "inclination_deg": 97.3305,
      "raan_deg": 294.7999,
      "arg_perigee_deg": 327.5595,
      "mean_anomaly_deg": 32.4918,
      "mean_motion_rev_day": 14.95744959
    },
    {
      "epoch": "2026-04-02T20:08:04.835040Z",
      "apogee_km": 587.9439304959014,
      "perigee_km": 572.086301823173,
      "latitude_deg": 6.187378626281886e-05,
      "longitude_deg": 162.53708834496206,
      "height_km": 576.6395932658023,
      "semi_major_axis_km": 6958.1521161595365,
      "eccentricity": 0.0011395,
      "inclination_deg": 97.3304,
      "raan_deg": 295.7391,
      "arg_perigee_deg": 324.3189,
      "mean_anomaly_deg": 35.7271,
      "mean_motion_rev_day": 14.95759892
    },
    {
      "epoch": "2026-04-02T21:44:24.803232Z",
      "apogee_km": 587.9305256714824,
      "perigee_km": 572.0964192932934,
      "latitude_deg": -1.6795692222690505e-05,
      "longitude_deg": 138.45066019579008,
      "height_km": 576.6621785507482,
      "semi_major_axis_km": 6958.150472482388,
      "eccentricity": 0.00113781,
      "inclination_deg": 97.3303,
      "raan_deg": 295.8018,
      "arg_perigee_deg": 324.1375,
      "mean_anomaly_deg": 35.9082,
      "mean_motion_rev_day": 14.95760422
    },
    {
      "epoch": "2026-04-03T20:13:03.713376Z",
      "apogee_km": 587.827610283327,
      "perigee_km": 572.1203705335784,
      "latitude_deg": 4.56083815166297e-05,
      "longitude_deg": 161.2419095159416,
      "height_km": 576.9387218216041,
      "semi_major_axis_km": 6958.110990408452,
      "eccentricity": 0.0011287,
      "inclination_deg": 97.3304,
      "raan_deg": 296.6783,
      "arg_perigee_deg": 320.9659,
      "mean_anomaly_deg": 39.0748,
      "mean_motion_rev_day": 14.95773153
    },
    {
      "epoch": "2026-04-04T20:18:01.758816Z",
      "apogee_km": 587.7348387406255,
      "perigee_km": 572.1487422499158,
      "latitude_deg": 8.037602552081775e-05,
      "longitude_deg": 159.95010319401933,
      "height_km": 577.2724343512857,
      "semi_major_axis_km": 6958.07879049527,
      "eccentricity": 0.00112,
      "inclination_deg": 97.3307,
      "raan_deg": 297.6174,
      "arg_perigee_deg": 317.3828,
      "mean_anomaly_deg": 42.6525,
      "mean_motion_rev_day": 14.95783536
    },
    {
      "epoch": "2026-04-05T13:57:39.924576Z",
      "apogee_km": 587.6853438629914,
      "perigee_km": 572.1487050318028,
      "latitude_deg": -1.4462163969399605e-05,
      "longitude_deg": -104.99540499572431,
      "height_km": 577.5170540396505,
      "semi_major_axis_km": 6958.054024447397,
      "eccentricity": 0.00111645,
      "inclination_deg": 97.3309,
      "raan_deg": 298.3062,
      "arg_perigee_deg": 314.7154,
      "mean_anomaly_deg": 45.3158,
      "mean_motion_rev_day": 14.95791522
    },
    {
      "epoch": "2026-04-05T20:22:59.177856Z",
      "apogee_km": 587.6673588890499,
      "perigee_km": 572.1536961217234,
      "latitude_deg": -6.0840765786827e-05,
      "longitude_deg": 158.6611356830586,
      "height_km": 577.6116486835355,
      "semi_major_axis_km": 6958.047527505386,
      "eccentricity": 0.0011148,
      "inclination_deg": 97.331,
      "raan_deg": 298.5567,
      "arg_perigee_deg": 313.7572,
      "mean_anomaly_deg": 46.2726,
      "mean_motion_rev_day": 14.95793617
    },
    {
      "epoch": "2026-04-06T04:24:38.199744Z",
      "apogee_km": 587.6435489562955,
      "perigee_km": 572.158018386468,
      "latitude_deg": 6.468467643946467e-06,
      "longitude_deg": 38.23195718476447,
      "height_km": 577.7307215450901,
      "semi_major_axis_km": 6958.0377836713815,
      "eccentricity": 0.00111278,
      "inclination_deg": 97.3311,
      "raan_deg": 298.8698,
      "arg_perigee_deg": 312.55,
      "mean_anomaly_deg": 47.4782,
      "mean_motion_rev_day": 14.95796759
    },
    {
      "epoch": "2026-04-07T14:07:33.538368Z",
      "apogee_km": 587.5936711776512,
      "perigee_km": 572.1480070560656,
      "latitude_deg": -6.130594389038095e-06,
      "longitude_deg": -107.56836367460983,
      "height_km": 578.2542177154562,
      "semi_major_axis_km": 6958.007839116858,
      "eccentricity": 0.00110992,
      "inclination_deg": 97.3314,
      "raan_deg": 300.1847,
      "arg_perigee_deg": 307.3265,
      "mean_anomaly_deg": 52.6945,
      "mean_motion_rev_day": 14.95806415
    }
  ]
}